[{"OBJECT_NAME":"STARLINK-1712","OBJECT_ID":"2020-070BB","EPOCH":"2025-08-11T03:17:50.531424","MEAN_MOTION":15.30656867,"ECCENTRICITY":0.0005142,"INCLINATION":53.0565,"RA_OF_ASC_NODE":16.6183,"ARG_OF_PERICENTER":259.1449,"MEAN_ANOMALY":100.8972,"EPHEMERIS_TYPE":0,"CLASSIFICATION_TYPE":"U","NORAD_CAT_ID":46581,"ELEMENT_SET_NO":999,"REV_AT_EPOCH":26812,"BSTAR":0.003048,"MEAN_MOTION_DOT":0.00092374,"MEAN_MOTION_DDOT":0},{"OBJECT_NAME":"STARLINK-1728","OBJECT_ID":"2020-070BC","EPOCH":"2025-08-11T03:39:03.401280","MEAN_MOTION":15.06390282,"ECCENTRICITY":0.0001257,"INCLINATION":53.0559,"RA_OF_ASC_NODE":21.7557,"ARG_OF_PERICENTER":88.913,"MEAN_ANOMALY":271.2003,"EPHEMERIS_TYPE":0,"CLASSIFICATION_TYPE":"U","NORAD_CAT_ID":46582,"ELEMENT_SET_NO":999,"REV_AT_EPOCH":26805,"BSTAR":5.0327e-7,"MEAN_MOTION_DOT":-2.74e-6,"MEAN_MOTION_DDOT":0},{"OBJECT_NAME":"STARLINK-1736","OBJECT_ID":"2020-070BF","EPOCH":"2025-08-10T17:49:57.829152","MEAN_MOTION":15.06393805,"ECCENTRICITY":0.0001392,"INCLINATION":53.0555,"RA_OF_ASC_NODE":23.9407,"ARG_OF_PERICENTER":89.242,"MEAN_ANOMALY":270.8729,"EPHEMERIS_TYPE":0,"CLASSIFICATION_TYPE":"U","NORAD_CAT_ID":46585,"ELEMENT_SET_NO":999,"REV_AT_EPOCH":26798,"BSTAR":-4.3523e-6,"MEAN_MOTION_DOT":-3.46e-6,"MEAN_MOTION_DDOT":0},{"OBJECT_NAME":"STARLINK-1746","OBJECT_ID":"2020-070BJ","EPOCH":"2025-08-11T03:28:27.326208","MEAN_MOTION":15.06390618,"ECCENTRICITY":0.0001214,"INCLINATION":53.0563,"RA_OF_ASC_NODE":21.7901,"ARG_OF_PERICENTER":84.4126,"MEAN_ANOMALY":275.7002,"EPHEMERIS_TYPE":0,"CLASSIFICATION_TYPE":"U","NORAD_CAT_ID":46588,"ELEMENT_SET_NO":999,"REV_AT_EPOCH":26805,"BSTAR":0.00019118,"MEAN_MOTION_DOT":2.567e-5,"MEAN_MOTION_DDOT":0},{"OBJECT_NAME":"STARLINK-1716","OBJECT_ID":"2020-073C","EPOCH":"2025-08-10T23:20:57.996672","MEAN_MOTION":15.06387216,"ECCENTRICITY":0.0001377,"INCLINATION":53.0543,"RA_OF_ASC_NODE":107.5644,"ARG_OF_PERICENTER":92.7166,"MEAN_ANOMALY":267.398,"EPHEMERIS_TYPE":0,"CLASSIFICATION_TYPE":"U","NORAD_CAT_ID":46672,"ELEMENT_SET_NO":999,"REV_AT_EPOCH":26537,"BSTAR":-0.00015461,"MEAN_MOTION_DOT":-2.583e-5,"MEAN_MOTION_DDOT":0},{"OBJECT_NAME":"STARLINK-1718","OBJECT_ID":"2020-073E","EPOCH":"2025-08-11T01:33:40.704480","MEAN_MOTION":15.06380088,"ECCENTRICITY":0.0001582,"INCLINATION":53.057,"RA_OF_ASC_NODE":107.1554,"ARG_OF_PERICENTER":90.6546,"MEAN_ANOMALY":269.4624,"EPHEMERIS_TYPE":0,"CLASSIFICATION_TYPE":"U","NORAD_CAT_ID":46674,"ELEMENT_SET_NO":999,"REV_AT_EPOCH":26538,"BSTAR":-5.1528e-6,"MEAN_MOTION_DOT":-3.58e-6,"MEAN_MOTION_DDOT":0},{"OBJECT_NAME":"STARLINK-1773","OBJECT_ID":"2020-073K","EPOCH":"2025-08-11T01:29:01.178016","MEAN_MOTION":16.24170928,"ECCENTRICITY":0.001004,"INCLINATION":53.0227,"RA_OF_ASC_NODE":30.2857,"ARG_OF_PERICENTER":285.7389,"MEAN_ANOMALY":180.2081,"EPHEMERIS_TYPE":0,"CLASSIFICATION_TYPE":"U","NORAD_CAT_ID":46679,"ELEMENT_SET_NO":999,"REV_AT_EPOCH":26694,"BSTAR":0.0010335,"MEAN_MOTION_DOT":0.02908222,"MEAN_MOTION_DDOT":1.1932e-5},{"OBJECT_NAME":"STARLINK-1775","OBJECT_ID":"2020-073M","EPOCH":"2025-08-10T23:16:20.798688","MEAN_MOTION":15.06374921,"ECCENTRICITY":0.0001388,"INCLINATION":53.054,"RA_OF_ASC_NODE":122.5775,"ARG_OF_PERICENTER":86.8696,"MEAN_ANOMALY":273.2452,"EPHEMERIS_TYPE":0,"CLASSIFICATION_TYPE":"U","NORAD_CAT_ID":46681,"ELEMENT_SET_NO":999,"REV_AT_EPOCH":26515,"BSTAR":-0.0001995,"MEAN_MOTION_DOT":-3.25e-5,"MEAN_MOTION_DDOT":0},{"OBJECT_NAME":"STARLINK-1781","OBJECT_ID":"2020-073R","EPOCH":"2025-08-11T03:09:55.943136","MEAN_MOTION":15.06380683,"ECCENTRICITY":0.0001515,"INCLINATION":53.0533,"RA_OF_ASC_NODE":122.118,"ARG_OF_PERICENTER":92.775,"MEAN_ANOMALY":267.3412,"EPHEMERIS_TYPE":0,"CLASSIFICATION_TYPE":"U","NORAD_CAT_ID":46685,"ELEMENT_SET_NO":999,"REV_AT_EPOCH":26517,"BSTAR":-0.00015297,"MEAN_MOTION_DOT":-2.558e-5,"MEAN_MOTION_DDOT":0},{"OBJECT_NAME":"STARLINK-1784","OBJECT_ID":"2020-073T","EPOCH":"2025-08-11T00:11:23.448192","MEAN_MOTION":15.06387138,"ECCENTRICITY":0.000133,"INCLINATION":53.0538,"RA_OF_ASC_NODE":87.4066,"ARG_OF_PERICENTER":82.4952,"MEAN_ANOMALY":277.6188,"EPHEMERIS_TYPE":0,"CLASSIFICATION_TYPE":"U","NORAD_CAT_ID":46687,"ELEMENT_SET_NO":999,"REV_AT_EPOCH":26565,"BSTAR":-0.00012979,"MEAN_MOTION_DOT":-2.213e-5,"MEAN_MOTION_DDOT":0},{"OBJECT_NAME":"STARLINK-1788","OBJECT_ID":"2020-073V","EPOCH":"2025-08-11T00:41:21.976512","MEAN_MOTION":15.06377071,"ECCENTRICITY":0.0001808,"INCLINATION":53.0538,"RA_OF_ASC_NODE":122.9694,"ARG_OF_PERICENTER":101.9704,"MEAN_ANOMALY":258.1487,"EPHEMERIS_TYPE":0,"CLASSIFICATION_TYPE":"U","NORAD_CAT_ID":46689,"ELEMENT_SET_NO":999,"REV_AT_EPOCH":26640,"BSTAR":-0.00024661,"MEAN_MOTION_DOT":-3.951e-5,"MEAN_MOTION_DDOT":0},{"OBJECT_NAME":"STARLINK-1789","OBJECT_ID":"2020-073W","EPOCH":"2025-08-10T23:11:41.094240","MEAN_MOTION":15.06381156,"ECCENTRICITY":0.0001456,"INCLINATION":53.0534,"RA_OF_ASC_NODE":97.5932,"ARG_OF_PERICENTER":87.2425,"MEAN_ANOMALY":272.8731,"EPHEMERIS_TYPE":0,"CLASSIFICATION_TYPE":"U","NORAD_CAT_ID":46690,"ELEMENT_SET_NO":999,"REV_AT_EPOCH":26550,"BSTAR":-0.00017348,"MEAN_MOTION_DOT":-2.863e-5,"MEAN_MOTION_DDOT":0},{"OBJECT_NAME":"STARLINK-1790","OBJECT_ID":"2020-073X","EPOCH":"2025-08-10T23:10:21.416160","MEAN_MOTION":15.06385211,"ECCENTRICITY":0.0001427,"INCLINATION":53.0533,"RA_OF_ASC_NODE":107.5968,"ARG_OF_PERICENTER":84.3798,"MEAN_ANOMALY":275.7354,"EPHEMERIS_TYPE":0,"CLASSIFICATION_TYPE":"U","NORAD_CAT_ID":46691,"ELEMENT_SET_NO":999,"REV_AT_EPOCH":26536,"BSTAR":-0.0001911,"MEAN_MOTION_DOT":-3.126e-5,"MEAN_MOTION_DDOT":0},{"OBJECT_NAME":"STARLINK-1792","OBJECT_ID":"2020-073Z","EPOCH":"2025-08-11T06:00:02.000160","MEAN_MOTION":15.78057752,"ECCENTRICITY":0.0004982,"INCLINATION":53.018,"RA_OF_ASC_NODE":27.2777,"ARG_OF_PERICENTER":267.2664,"MEAN_ANOMALY":76.5484,"EPHEMERIS_TYPE":0,"CLASSIFICATION_TYPE":"U","NORAD_CAT_ID":46693,"ELEMENT_SET_NO":999,"REV_AT_EPOCH":597,"BSTAR":0.0019951,"MEAN_MOTION_DOT":0.00360991,"MEAN_MOTION_DDOT":0},{"OBJECT_NAME":"STARLINK-1795","OBJECT_ID":"2020-073AC","EPOCH":"2025-08-11T00:16:42.353184","MEAN_MOTION":15.06384738,"ECCENTRICITY":0.0001396,"INCLINATION":53.0538,"RA_OF_ASC_NODE":87.3896,"ARG_OF_PERICENTER":92.3719,"MEAN_ANOMALY":267.743,"EPHEMERIS_TYPE":0,"CLASSIFICATION_TYPE":"U","NORAD_CAT_ID":46696,"ELEMENT_SET_NO":999,"REV_AT_EPOCH":26565,"BSTAR":-2.451e-5,"MEAN_MOTION_DOT":-6.46e-6,"MEAN_MOTION_DDOT":0},{"OBJECT_NAME":"STARLINK-1797","OBJECT_ID":"2020-073AE","EPOCH":"2025-08-11T01:23:10.019904","MEAN_MOTION":15.06382603,"ECCENTRICITY":0.0001391,"INCLINATION":53.0555,"RA_OF_ASC_NODE":107.7638,"ARG_OF_PERICENTER":94.9734,"MEAN_ANOMALY":265.1413,"EPHEMERIS_TYPE":0,"CLASSIFICATION_TYPE":"U","NORAD_CAT_ID":46698,"ELEMENT_SET_NO":999,"REV_AT_EPOCH":26537,"BSTAR":1.3281e-5,"MEAN_MOTION_DOT":-8.4e-7,"MEAN_MOTION_DDOT":0}]
