STARLINK-1712           
1 46581U 20070BB  25223.13739041  .00092374  00000+0  30480-2 0  9996
2 46581  53.0565  16.6183 0005142 259.1449 100.8972 15.30656867268124
STARLINK-1728           
1 46582U 20070BC  25223.15212270 -.00000274  00000+0  50327-6 0  9994
2 46582  53.0559  21.7557 0001257  88.9130 271.2003 15.06390282268057
STARLINK-1736           
1 46585U 20070BF  25222.74303043 -.00000346  00000+0 -43523-5 0  9990
2 46585  53.0555  23.9407 0001392  89.2420 270.8729 15.06393805267985
STARLINK-1746           
1 46588U 20070BJ  25223.14476072  .00002567  00000+0  19118-3 0  9997
2 46588  53.0563  21.7901 0001214  84.4126 275.7002 15.06390618268051
STARLINK-1716           
1 46672U 20073C   25222.97289348 -.00002583  00000+0 -15461-3 0  9999
2 46672  53.0543 107.5644 0001377  92.7166 267.3980 15.06387216265370
STARLINK-1718           
1 46674U 20073E   25223.06505445 -.00000358  00000+0 -51528-5 0  9995
2 46674  53.0570 107.1554 0001582  90.6546 269.4624 15.06380088265384
STARLINK-1773           
1 46679U 20073K   25223.06181919  .02908222  11932-4  10335-2 0  9992
2 46679  53.0227  30.2857 0010040 285.7389 180.2081 16.24170928266942
STARLINK-1775           
1 46681U 20073M   25222.96968517 -.00003250  00000+0 -19950-3 0  9999
2 46681  53.0540 122.5775 0001388  86.8696 273.2452 15.06374921265158
STARLINK-1781           
1 46685U 20073R   25223.13189749 -.00002558  00000+0 -15297-3 0  9995
2 46685  53.0533 122.1180 0001515  92.7750 267.3412 15.06380683265173
STARLINK-1784           
1 46687U 20073T   25223.00791028 -.00002213  00000+0 -12979-3 0  9994
2 46687  53.0538  87.4066 0001330  82.4952 277.6188 15.06387138265650
STARLINK-1788           
1 46689U 20073V   25223.02872658 -.00003951  00000+0 -24661-3 0  9998
2 46689  53.0538 122.9694 0001808 101.9704 258.1487 15.06377071266401
STARLINK-1789           
1 46690U 20073W   25222.96644785 -.00002863  00000+0 -17348-3 0  9995
2 46690  53.0534  97.5932 0001456  87.2425 272.8731 15.06381156265500
STARLINK-1790           
1 46691U 20073X   25222.96552565 -.00003126  00000+0 -19110-3 0  9992
2 46691  53.0533 107.5968 0001427  84.3798 275.7354 15.06385211265363
STARLINK-1792           
1 46693U 20073Z   25223.25002315  .00360991  00000+0  19951-2 0  9996
2 46693  53.0180  27.2777 0004982 267.2664  76.5484 15.78057752  5977
STARLINK-1795           
1 46696U 20073AC  25223.01160131 -.00000646  00000+0 -24510-4 0  9993
2 46696  53.0538  87.3896 0001396  92.3719 267.7430 15.06384738265656
STARLINK-1797           
1 46698U 20073AE  25223.05775486 -.00000084  00000+0  13281-4 0  9992
2 46698  53.0555 107.7638 0001391  94.9734 265.1413 15.06382603265379
